{
  "type": "FeatureCollection",
  "features": [
    {
      "type": "Feature",
      "properties": {
        "norad_id": 30445,
        "name": "FENGYUN 1C DEB",
        "group": "fengyun-1c-debris",
        "lat": 31.62966387573723,
        "lon": 125.41084342435656,
        "alt_km": 780.4525438358478,
        "timestamp": "2025-12-14T11:29:50.336835+00:00",
        "meta_object_name": "FENGYUN 1C DEB",
        "meta_object_id": "1999-025AFG",
        "meta_epoch": "2025-12-13T08:18:06.980832",
        "meta_mean_motion": 14.48753095,
        "meta_eccentricity": 0.01059141,
        "meta_inclination": 98.8346,
        "meta_ra_of_asc_node": 298.7286,
        "meta_arg_of_pericenter": 16.5168,
        "meta_mean_anomaly": 343.9432,
        "meta_ephemeris_type": 0,
        "meta_classification_type": "U",
        "meta_norad_cat_id": 30445,
        "meta_element_set_no": 999,
        "meta_rev_at_epoch": 99193,
        "meta_bstar": 0.0012653003,
        "meta_mean_motion_dot": 5.075e-05,
        "meta_mean_motion_ddot": 0,
        "tle_line1": "1 30445U 99025AFG 25347.34591413  .00005075  00000+0  12653-2 0  9997",
        "tle_line2": "2 30445  98.8346 298.7286 0105914  16.5168 343.9432 14.48753095991930"
      },
      "geometry": {
        "type": "Point",
        "coordinates": [
          125.41084342435656,
          31.62966387573723
        ]
      }
    },
    {
      "type": "Feature",
      "properties": {
        "norad_id": 30446,
        "name": "FENGYUN 1C DEB",
        "group": "fengyun-1c-debris",
        "lat": -77.86632443489852,
        "lon": -153.8249616982534,
        "alt_km": 774.4776406348738,
        "timestamp": "2025-12-14T11:29:50.336846+00:00",
        "meta_object_name": "FENGYUN 1C DEB",
        "meta_object_id": "1999-025AFH",
        "meta_epoch": "2025-12-12T23:23:16.421568",
        "meta_mean_motion": 14.44731165,
        "meta_eccentricity": 0.00349139,
        "meta_inclination": 98.6132,
        "meta_ra_of_asc_node": 69.4793,
        "meta_arg_of_pericenter": 97.6404,
        "meta_mean_anomaly": 262.8754,
        "meta_ephemeris_type": 0,
        "meta_classification_type": "U",
        "meta_norad_cat_id": 30446,
        "meta_element_set_no": 999,
        "meta_rev_at_epoch": 98180,
        "meta_bstar": 0.0025994046,
        "meta_mean_motion_dot": 9.052e-05,
        "meta_mean_motion_ddot": 0,
        "tle_line1": "1 30446U 99025AFH 25346.97449562  .00009052  00000+0  25994-2 0  9994",
        "tle_line2": "2 30446  98.6132  69.4793 0034913  97.6404 262.8754 14.44731165981802"
      },
      "geometry": {
        "type": "Point",
        "coordinates": [
          -153.8249616982534,
          -77.86632443489852
        ]
      }
    },
    {
      "type": "Feature",
      "properties": {
        "norad_id": 30447,
        "name": "FENGYUN 1C DEB",
        "group": "fengyun-1c-debris",
        "lat": 79.59803390217905,
        "lon": 89.55853108042594,
        "alt_km": 681.7254428719161,
        "timestamp": "2025-12-14T11:29:50.336856+00:00",
        "meta_object_name": "FENGYUN 1C DEB",
        "meta_object_id": "1999-025AFJ",
        "meta_epoch": "2025-12-13T13:54:17.344224",
        "meta_mean_motion": 14.56617956,
        "meta_eccentricity": 0.0060153,
        "meta_inclination": 98.9726,
        "meta_ra_of_asc_node": 209.1957,
        "meta_arg_of_pericenter": 28.1502,
        "meta_mean_anomaly": 31.3543,
        "meta_ephemeris_type": 0,
        "meta_classification_type": "U",
        "meta_norad_cat_id": 30447,
        "meta_element_set_no": 999,
        "meta_rev_at_epoch": 98108,
        "meta_bstar": 0.0029767912,
        "meta_mean_motion_dot": 0.00013574,
        "meta_mean_motion_ddot": 0,
        "tle_line1": "1 30447U 99025AFJ 25347.57936741  .00013574  00000+0  29768-2 0  9999",
        "tle_line2": "2 30447  98.9726 209.1957 0060153  28.1502  31.3543 14.56617956981082"
      },
      "geometry": {
        "type": "Point",
        "coordinates": [
          89.55853108042594,
          79.59803390217905
        ]
      }
    },
    {
      "type": "Feature",
      "properties": {
        "norad_id": 30448,
        "name": "FENGYUN 1C DEB",
        "group": "fengyun-1c-debris",
        "lat": 40.737515253604414,
        "lon": 72.41995462984325,
        "alt_km": 761.2441472627706,
        "timestamp": "2025-12-14T11:29:50.336866+00:00",
        "meta_object_name": "FENGYUN 1C DEB",
        "meta_object_id": "1999-025AFK",
        "meta_epoch": "2025-12-13T05:26:19.210272",
        "meta_mean_motion": 14.35145354,
        "meta_eccentricity": 0.00169576,
        "meta_inclination": 98.8308,
        "meta_ra_of_asc_node": 78.8338,
        "meta_arg_of_pericenter": 10.6007,
        "meta_mean_anomaly": 43.5591,
        "meta_ephemeris_type": 0,
        "meta_classification_type": "U",
        "meta_norad_cat_id": 30448,
        "meta_element_set_no": 999,
        "meta_rev_at_epoch": 97345,
        "meta_bstar": 0.0032180382,
        "meta_mean_motion_dot": 9.172e-05,
        "meta_mean_motion_ddot": 0,
        "tle_line1": "1 30448U 99025AFK 25347.22661123  .00009172  00000+0  32180-2 0  9992",
        "tle_line2": "2 30448  98.8308  78.8338 0016957  10.6007  43.5591 14.35145354973456"
      },
      "geometry": {
        "type": "Point",
        "coordinates": [
          72.41995462984325,
          40.737515253604414
        ]
      }
    },
    {
      "type": "Feature",
      "properties": {
        "norad_id": 30450,
        "name": "FENGYUN 1C DEB",
        "group": "fengyun-1c-debris",
        "lat": -25.61993939585253,
        "lon": 6.383451959942092,
        "alt_km": 779.9283356955939,
        "timestamp": "2025-12-14T11:29:50.336877+00:00",
        "meta_object_name": "FENGYUN 1C DEB",
        "meta_object_id": "1999-025AFM",
        "meta_epoch": "2025-12-13T14:51:13.985568",
        "meta_mean_motion": 14.6179174,
        "meta_eccentricity": 0.01891007,
        "meta_inclination": 98.0812,
        "meta_ra_of_asc_node": 1.6353,
        "meta_arg_of_pericenter": 205.5223,
        "meta_mean_anomaly": 283.2809,
        "meta_ephemeris_type": 0,
        "meta_classification_type": "U",
        "meta_norad_cat_id": 30450,
        "meta_element_set_no": 999,
        "meta_rev_at_epoch": 99555,
        "meta_bstar": 0.00074257015,
        "meta_mean_motion_dot": 4.732e-05,
        "meta_mean_motion_ddot": 0,
        "tle_line1": "1 30450U 99025AFM 25347.61891187  .00004732  00000+0  74257-3 0  9992",
        "tle_line2": "2 30450  98.0812   1.6353 0189100 205.5223 283.2809 14.61791740995553"
      },
      "geometry": {
        "type": "Point",
        "coordinates": [
          6.383451959942092,
          -25.61993939585253
        ]
      }
    },
    {
      "type": "Feature",
      "properties": {
        "norad_id": 30452,
        "name": "FENGYUN 1C DEB",
        "group": "fengyun-1c-debris",
        "lat": 8.109605619175545,
        "lon": -51.265616255276015,
        "alt_km": 671.0532263888426,
        "timestamp": "2025-12-14T11:29:50.336887+00:00",
        "meta_object_name": "FENGYUN 1C DEB",
        "meta_object_id": "1999-025AFP",
        "meta_epoch": "2025-12-13T08:43:43.946976",
        "meta_mean_motion": 14.64603338,
        "meta_eccentricity": 0.00495576,
        "meta_inclination": 99.3196,
        "meta_ra_of_asc_node": 126.1319,
        "meta_arg_of_pericenter": 250.6442,
        "meta_mean_anomaly": 164.0111,
        "meta_ephemeris_type": 0,
        "meta_classification_type": "U",
        "meta_norad_cat_id": 30452,
        "meta_element_set_no": 999,
        "meta_rev_at_epoch": 98116,
        "meta_bstar": 0.0072159399,
        "meta_mean_motion_dot": 0.00039176,
        "meta_mean_motion_ddot": 0,
        "tle_line1": "1 30452U 99025AFP 25347.36370309  .00039176  00000+0  72159-2 0  9992",
        "tle_line2": "2 30452  99.3196 126.1319 0049557 250.6442 164.0111 14.64603338981166"
      },
      "geometry": {
        "type": "Point",
        "coordinates": [
          -51.265616255276015,
          8.109605619175545
        ]
      }
    },
    {
      "type": "Feature",
      "properties": {
        "norad_id": 30453,
        "name": "FENGYUN 1C DEB",
        "group": "fengyun-1c-debris",
        "lat": -12.967392473432108,
        "lon": 62.24997387891124,
        "alt_km": 861.6288686703165,
        "timestamp": "2025-12-14T11:29:50.336897+00:00",
        "meta_object_name": "FENGYUN 1C DEB",
        "meta_object_id": "1999-025AFQ",
        "meta_epoch": "2025-12-13T16:05:25.229760",
        "meta_mean_motion": 14.24766632,
        "meta_eccentricity": 0.01157375,
        "meta_inclination": 98.8133,
        "meta_ra_of_asc_node": 59.391,
        "meta_arg_of_pericenter": 223.6085,
        "meta_mean_anomaly": 297.069,
        "meta_ephemeris_type": 0,
        "meta_classification_type": "U",
        "meta_norad_cat_id": 30453,
        "meta_element_set_no": 999,
        "meta_rev_at_epoch": 97247,
        "meta_bstar": 0.0019794651,
        "meta_mean_motion_dot": 4.903e-05,
        "meta_mean_motion_ddot": 0,
        "tle_line1": "1 30453U 99025AFQ 25347.67043090  .00004903  00000+0  19795-2 0  9998",
        "tle_line2": "2 30453  98.8133  59.3910 0115737 223.6085 297.0690 14.24766632972479"
      },
      "geometry": {
        "type": "Point",
        "coordinates": [
          62.24997387891124,
          -12.967392473432108
        ]
      }
    }
  ]
}